STARLINK-30423          
1 57843U 23141D   25283.19828798 -.00000385  00000+0 -85861-6 0  9991
2 57843  53.1605 263.1768 0001492 115.6861 244.4294 15.30183456117280
STARLINK-30292          
1 57844U 23141E   25283.20559556  .00000398  00000+0  25584-4 0  9993
2 57844  53.1608 262.7275 0001407  92.8090 267.3072 15.30185554117298
STARLINK-30416          
1 57847U 23141H   25283.24991906 -.00000072  00000+0  97040-5 0  9996
2 57847  53.1597 262.9610 0001416 102.8642 257.2517 15.30183758117294
STARLINK-30426          
1 57848U 23141J   25283.20143910  .00001336  00000+0  57224-4 0  9999
2 57848  53.1600 263.1608 0001290  94.8093 265.3055 15.30199026117281
STARLINK-30430          
1 57849U 23141K   25283.24672644  .00003092  00000+0  11639-3 0  9995
2 57849  53.1591 262.9791 0001236  99.3279 260.7862 15.30220302117295
STARLINK-30425          
1 57850U 23141L   25283.20461115  .00000954  00000+0  44337-4 0  9998
2 57850  53.1607 263.1870 0001435  86.6699 273.4466 15.30195849117289
STARLINK-30405          
1 57851U 23141M   25283.18776044  .00000310  00000+0  22607-4 0  9998
2 57851  53.1596 263.2666 0001326 102.1013 258.0137 15.30188891117287
STARLINK-30431          
1 57852U 23141N   25283.21086848  .00003432  00000+0  12794-3 0  9992
2 57852  53.1608 262.7540 0001439  96.7148 263.4017 15.30199474117285
STARLINK-30404          
1 57853U 23141P   25283.20665028  .00001199  00000+0  52639-4 0  9996
2 57853  53.1611 262.7285 0001523  96.9382 263.1793 15.30185997117296
STARLINK-30412          
1 57854U 23141Q   25283.21720193  .00000737  00000+0  37007-4 0  9992
2 57854  53.1602 262.7928 0001429  87.6773 272.4392 15.30188783117291
STARLINK-30392          
1 57855U 23141R   25283.21402892  .00000405  00000+0  25810-4 0  9997
2 57855  53.1607 262.7738 0001335  74.9566 285.1582 15.30198341117294
STARLINK-30291          
1 57856U 23141S   25283.23724395 -.00000154  00000+0  69335-5 0  9998
2 57856  53.1592 262.9176 0001211  88.7228 271.3912 15.30208086117299
STARLINK-30424          
1 57857U 23141T   25283.30350715  .00000455  00000+0  27498-4 0  9994
2 57857  53.1603 236.6521 0001662 118.9002 241.2165 15.30189062117660
STARLINK-30290          
1 57858U 23141U   25283.28884540 -.00000062  00000+0  10028-4 0  9996
2 57858  53.1603 262.5288 0001381  83.5961 276.5197 15.30195442117304
STARLINK-30414          
1 57859U 23141V   25283.22036321  .00001534  00000+0  63909-4 0  9997
2 57859  53.1606 262.8130 0001485  79.6154 280.5015 15.30193460117292
STARLINK-30272          
1 57860U 23141W   25283.24041310  .00001789  00000+0  72511-4 0  9996
2 57860  53.1592 262.9369 0001268  92.1226 267.9920 15.30197014117295
