[{"OBJECT_NAME":"STARLINK-30423","OBJECT_ID":"2023-141D","EPOCH":"2025-10-10T04:45:32.081472","MEAN_MOTION":15.30183456,"ECCENTRICITY":0.00014921,"INCLINATION":53.1605,"RA_OF_ASC_NODE":263.1768,"ARG_OF_PERICENTER":115.6861,"MEAN_ANOMALY":244.4294,"EPHEMERIS_TYPE":0,"CLASSIFICATION_TYPE":"U","NORAD_CAT_ID":57843,"ELEMENT_SET_NO":999,"REV_AT_EPOCH":11728,"BSTAR":-8.58614e-7,"MEAN_MOTION_DOT":-3.85e-6,"MEAN_MOTION_DDOT":0},{"OBJECT_NAME":"STARLINK-30292","OBJECT_ID":"2023-141E","EPOCH":"2025-10-10T04:56:03.456384","MEAN_MOTION":15.30185554,"ECCENTRICITY":0.00014072,"INCLINATION":53.1608,"RA_OF_ASC_NODE":262.7275,"ARG_OF_PERICENTER":92.809,"MEAN_ANOMALY":267.3072,"EPHEMERIS_TYPE":0,"CLASSIFICATION_TYPE":"U","NORAD_CAT_ID":57844,"ELEMENT_SET_NO":999,"REV_AT_EPOCH":11729,"BSTAR":2.5583524e-5,"MEAN_MOTION_DOT":3.98e-6,"MEAN_MOTION_DDOT":0},{"OBJECT_NAME":"STARLINK-30416","OBJECT_ID":"2023-141H","EPOCH":"2025-10-10T05:59:53.006784","MEAN_MOTION":15.30183758,"ECCENTRICITY":0.00014168,"INCLINATION":53.1597,"RA_OF_ASC_NODE":262.961,"ARG_OF_PERICENTER":102.8642,"MEAN_ANOMALY":257.2517,"EPHEMERIS_TYPE":0,"CLASSIFICATION_TYPE":"U","NORAD_CAT_ID":57847,"ELEMENT_SET_NO":999,"REV_AT_EPOCH":11729,"BSTAR":9.704025e-6,"MEAN_MOTION_DOT":-7.2e-7,"MEAN_MOTION_DDOT":0},{"OBJECT_NAME":"STARLINK-30426","OBJECT_ID":"2023-141J","EPOCH":"2025-10-10T04:50:04.338240","MEAN_MOTION":15.30199026,"ECCENTRICITY":0.00012909,"INCLINATION":53.16,"RA_OF_ASC_NODE":263.1608,"ARG_OF_PERICENTER":94.8093,"MEAN_ANOMALY":265.3055,"EPHEMERIS_TYPE":0,"CLASSIFICATION_TYPE":"U","NORAD_CAT_ID":57848,"ELEMENT_SET_NO":999,"REV_AT_EPOCH":11728,"BSTAR":5.7223838e-5,"MEAN_MOTION_DOT":1.336e-5,"MEAN_MOTION_DDOT":0},{"OBJECT_NAME":"STARLINK-30430","OBJECT_ID":"2023-141K","EPOCH":"2025-10-10T05:55:17.164416","MEAN_MOTION":15.30220302,"ECCENTRICITY":0.00012363,"INCLINATION":53.1591,"RA_OF_ASC_NODE":262.9791,"ARG_OF_PERICENTER":99.3279,"MEAN_ANOMALY":260.7862,"EPHEMERIS_TYPE":0,"CLASSIFICATION_TYPE":"U","NORAD_CAT_ID":57849,"ELEMENT_SET_NO":999,"REV_AT_EPOCH":11729,"BSTAR":0.00011639121,"MEAN_MOTION_DOT":3.092e-5,"MEAN_MOTION_DDOT":0},{"OBJECT_NAME":"STARLINK-30425","OBJECT_ID":"2023-141L","EPOCH":"2025-10-10T04:54:38.403360","MEAN_MOTION":15.30195849,"ECCENTRICITY":0.00014357,"INCLINATION":53.1607,"RA_OF_ASC_NODE":263.187,"ARG_OF_PERICENTER":86.6699,"MEAN_ANOMALY":273.4466,"EPHEMERIS_TYPE":0,"CLASSIFICATION_TYPE":"U","NORAD_CAT_ID":57850,"ELEMENT_SET_NO":999,"REV_AT_EPOCH":11728,"BSTAR":4.433703e-5,"MEAN_MOTION_DOT":9.54e-6,"MEAN_MOTION_DDOT":0},{"OBJECT_NAME":"STARLINK-30405","OBJECT_ID":"2023-141M","EPOCH":"2025-10-10T04:30:22.502016","MEAN_MOTION":15.30188891,"ECCENTRICITY":0.00013266,"INCLINATION":53.1596,"RA_OF_ASC_NODE":263.2666,"ARG_OF_PERICENTER":102.1013,"MEAN_ANOMALY":258.0137,"EPHEMERIS_TYPE":0,"CLASSIFICATION_TYPE":"U","NORAD_CAT_ID":57851,"ELEMENT_SET_NO":999,"REV_AT_EPOCH":11728,"BSTAR":2.2607399e-5,"MEAN_MOTION_DOT":3.1e-6,"MEAN_MOTION_DDOT":0},{"OBJECT_NAME":"STARLINK-30431","OBJECT_ID":"2023-141N","EPOCH":"2025-10-10T05:03:39.036672","MEAN_MOTION":15.30199474,"ECCENTRICITY":0.00014393,"INCLINATION":53.1608,"RA_OF_ASC_NODE":262.754,"ARG_OF_PERICENTER":96.7148,"MEAN_ANOMALY":263.4017,"EPHEMERIS_TYPE":0,"CLASSIFICATION_TYPE":"U","NORAD_CAT_ID":57852,"ELEMENT_SET_NO":999,"REV_AT_EPOCH":11728,"BSTAR":0.00012794211,"MEAN_MOTION_DOT":3.432e-5,"MEAN_MOTION_DDOT":0},{"OBJECT_NAME":"STARLINK-30404","OBJECT_ID":"2023-141P","EPOCH":"2025-10-10T04:57:34.584192","MEAN_MOTION":15.30185997,"ECCENTRICITY":0.00015232,"INCLINATION":53.1611,"RA_OF_ASC_NODE":262.7285,"ARG_OF_PERICENTER":96.9382,"MEAN_ANOMALY":263.1793,"EPHEMERIS_TYPE":0,"CLASSIFICATION_TYPE":"U","NORAD_CAT_ID":57853,"ELEMENT_SET_NO":999,"REV_AT_EPOCH":11729,"BSTAR":5.2638684e-5,"MEAN_MOTION_DOT":1.199e-5,"MEAN_MOTION_DDOT":0},{"OBJECT_NAME":"STARLINK-30412","OBJECT_ID":"2023-141Q","EPOCH":"2025-10-10T05:12:46.246752","MEAN_MOTION":15.30188783,"ECCENTRICITY":0.0001429,"INCLINATION":53.1602,"RA_OF_ASC_NODE":262.7928,"ARG_OF_PERICENTER":87.6773,"MEAN_ANOMALY":272.4392,"EPHEMERIS_TYPE":0,"CLASSIFICATION_TYPE":"U","NORAD_CAT_ID":57854,"ELEMENT_SET_NO":999,"REV_AT_EPOCH":11729,"BSTAR":3.7006701e-5,"MEAN_MOTION_DOT":7.37e-6,"MEAN_MOTION_DDOT":0},{"OBJECT_NAME":"STARLINK-30392","OBJECT_ID":"2023-141R","EPOCH":"2025-10-10T05:08:12.098688","MEAN_MOTION":15.30198341,"ECCENTRICITY":0.00013355,"INCLINATION":53.1607,"RA_OF_ASC_NODE":262.7738,"ARG_OF_PERICENTER":74.9566,"MEAN_ANOMALY":285.1582,"EPHEMERIS_TYPE":0,"CLASSIFICATION_TYPE":"U","NORAD_CAT_ID":57855,"ELEMENT_SET_NO":999,"REV_AT_EPOCH":11729,"BSTAR":2.5810414e-5,"MEAN_MOTION_DOT":4.05e-6,"MEAN_MOTION_DDOT":0},{"OBJECT_NAME":"STARLINK-30291","OBJECT_ID":"2023-141S","EPOCH":"2025-10-10T05:41:37.877280","MEAN_MOTION":15.30208086,"ECCENTRICITY":0.00012118,"INCLINATION":53.1592,"RA_OF_ASC_NODE":262.9176,"ARG_OF_PERICENTER":88.7228,"MEAN_ANOMALY":271.3912,"EPHEMERIS_TYPE":0,"CLASSIFICATION_TYPE":"U","NORAD_CAT_ID":57856,"ELEMENT_SET_NO":999,"REV_AT_EPOCH":11729,"BSTAR":6.933519e-6,"MEAN_MOTION_DOT":-1.54e-6,"MEAN_MOTION_DDOT":0},{"OBJECT_NAME":"STARLINK-30424","OBJECT_ID":"2023-141T","EPOCH":"2025-10-10T07:17:03.017760","MEAN_MOTION":15.30189062,"ECCENTRICITY":0.00016629,"INCLINATION":53.1603,"RA_OF_ASC_NODE":236.6521,"ARG_OF_PERICENTER":118.9002,"MEAN_ANOMALY":241.2165,"EPHEMERIS_TYPE":0,"CLASSIFICATION_TYPE":"U","NORAD_CAT_ID":57857,"ELEMENT_SET_NO":999,"REV_AT_EPOCH":11766,"BSTAR":2.7497927e-5,"MEAN_MOTION_DOT":4.55e-6,"MEAN_MOTION_DDOT":0},{"OBJECT_NAME":"STARLINK-30290","OBJECT_ID":"2023-141U","EPOCH":"2025-10-10T06:55:56.242560","MEAN_MOTION":15.30195442,"ECCENTRICITY":0.00013815,"INCLINATION":53.1603,"RA_OF_ASC_NODE":262.5288,"ARG_OF_PERICENTER":83.5961,"MEAN_ANOMALY":276.5197,"EPHEMERIS_TYPE":0,"CLASSIFICATION_TYPE":"U","NORAD_CAT_ID":57858,"ELEMENT_SET_NO":999,"REV_AT_EPOCH":11730,"BSTAR":1.0028106e-5,"MEAN_MOTION_DOT":-6.2e-7,"MEAN_MOTION_DDOT":0},{"OBJECT_NAME":"STARLINK-30414","OBJECT_ID":"2023-141V","EPOCH":"2025-10-10T05:17:19.381344","MEAN_MOTION":15.3019346,"ECCENTRICITY":0.00014856,"INCLINATION":53.1606,"RA_OF_ASC_NODE":262.813,"ARG_OF_PERICENTER":79.6154,"MEAN_ANOMALY":280.5015,"EPHEMERIS_TYPE":0,"CLASSIFICATION_TYPE":"U","NORAD_CAT_ID":57859,"ELEMENT_SET_NO":999,"REV_AT_EPOCH":11729,"BSTAR":6.3909334e-5,"MEAN_MOTION_DOT":1.534e-5,"MEAN_MOTION_DDOT":0},{"OBJECT_NAME":"STARLINK-30272","OBJECT_ID":"2023-141W","EPOCH":"2025-10-10T05:46:11.691840","MEAN_MOTION":15.30197014,"ECCENTRICITY":0.0001268,"INCLINATION":53.1592,"RA_OF_ASC_NODE":262.9369,"ARG_OF_PERICENTER":92.1226,"MEAN_ANOMALY":267.992,"EPHEMERIS_TYPE":0,"CLASSIFICATION_TYPE":"U","NORAD_CAT_ID":57860,"ELEMENT_SET_NO":999,"REV_AT_EPOCH":11729,"BSTAR":7.2511105e-5,"MEAN_MOTION_DOT":1.789e-5,"MEAN_MOTION_DDOT":0}]
